{
  "type": "FeatureCollection",
  "features": [
    {
      "type": "Feature",
      "properties": {
        "norad_id": 67011,
        "name": "STARLINK-36167",
        "group": "last-30-days",
        "lat": -25.622794802117077,
        "lon": 127.11917215855438,
        "alt_km": 307.9349603605815,
        "timestamp": "2025-12-21T22:41:40.167691+00:00",
        "meta_object_name": "STARLINK-36167",
        "meta_object_id": "2025-293J",
        "meta_epoch": "2025-12-21T14:00:01.999872",
        "meta_mean_motion": 15.8969046,
        "meta_eccentricity": 0.00043613,
        "meta_inclination": 69.9931,
        "meta_ra_of_asc_node": 298.1027,
        "meta_arg_of_pericenter": 269.7846,
        "meta_mean_anomaly": 25.3163,
        "meta_ephemeris_type": 0,
        "meta_classification_type": "U",
        "meta_norad_cat_id": 67011,
        "meta_element_set_no": 999,
        "meta_rev_at_epoch": 153,
        "meta_bstar": -0.0016394764,
        "meta_mean_motion_dot": -0.00485845,
        "meta_mean_motion_ddot": 7.7734875e-05,
        "tle_line1": "1 67011U 25293J   25355.58335648 -.00485845  77735-4 -16395-2 0  9993",
        "tle_line2": "2 67011  69.9931 298.1027 0004361 269.7846  25.3163 15.89690460  1536"
      },
      "geometry": {
        "type": "Point",
        "coordinates": [
          127.11917215855438,
          -25.622794802117077
        ]
      }
    },
    {
      "type": "Feature",
      "properties": {
        "norad_id": 67012,
        "name": "STARLINK-36175",
        "group": "last-30-days",
        "lat": -30.339058704016363,
        "lon": 129.36208472460882,
        "alt_km": 308.1267740693984,
        "timestamp": "2025-12-21T22:41:40.167721+00:00",
        "meta_object_name": "STARLINK-36175",
        "meta_object_id": "2025-293K",
        "meta_epoch": "2025-12-21T14:00:01.999872",
        "meta_mean_motion": 15.8978666,
        "meta_eccentricity": 0.00043174,
        "meta_inclination": 69.9932,
        "meta_ra_of_asc_node": 298.097,
        "meta_arg_of_pericenter": 270.8951,
        "meta_mean_anomaly": 29.2666,
        "meta_ephemeris_type": 0,
        "meta_classification_type": "U",
        "meta_norad_cat_id": 67012,
        "meta_element_set_no": 999,
        "meta_rev_at_epoch": 153,
        "meta_bstar": -0.0021139643,
        "meta_mean_motion_dot": -0.00628746,
        "meta_mean_motion_ddot": 0.00012514396,
        "tle_line1": "1 67012U 25293K   25355.58335648 -.00628746  12514-3 -21140-2 0  9990",
        "tle_line2": "2 67012  69.9932 298.0970 0004317 270.8951  29.2666 15.89786660  1534"
      },
      "geometry": {
        "type": "Point",
        "coordinates": [
          129.36208472460882,
          -30.339058704016363
        ]
      }
    },
    {
      "type": "Feature",
      "properties": {
        "norad_id": 67013,
        "name": "STARLINK-35856",
        "group": "last-30-days",
        "lat": -32.876606213584814,
        "lon": 130.66722030420698,
        "alt_km": 308.2265498432371,
        "timestamp": "2025-12-21T22:41:40.167734+00:00",
        "meta_object_name": "STARLINK-35856",
        "meta_object_id": "2025-293L",
        "meta_epoch": "2025-12-21T14:00:01.999872",
        "meta_mean_motion": 15.89840503,
        "meta_eccentricity": 0.00043762,
        "meta_inclination": 69.993,
        "meta_ra_of_asc_node": 298.0934,
        "meta_arg_of_pericenter": 271.6446,
        "meta_mean_anomaly": 31.2665,
        "meta_ephemeris_type": 0,
        "meta_classification_type": "U",
        "meta_norad_cat_id": 67013,
        "meta_element_set_no": 999,
        "meta_rev_at_epoch": 153,
        "meta_bstar": -0.002437261,
        "meta_mean_motion_dot": -0.00726352,
        "meta_mean_motion_ddot": 0.00016358686,
        "tle_line1": "1 67013U 25293L   25355.58335648 -.00726352  16359-3 -24373-2 0  9995",
        "tle_line2": "2 67013  69.9930 298.0934 0004376 271.6446  31.2665 15.89840503  1535"
      },
      "geometry": {
        "type": "Point",
        "coordinates": [
          130.66722030420698,
          -32.876606213584814
        ]
      }
    },
    {
      "type": "Feature",
      "properties": {
        "norad_id": 67014,
        "name": "STARLINK-36207",
        "group": "last-30-days",
        "lat": -35.24756255925891,
        "lon": 131.96347247382698,
        "alt_km": 307.9734146740302,
        "timestamp": "2025-12-21T22:41:40.167745+00:00",
        "meta_object_name": "STARLINK-36207",
        "meta_object_id": "2025-293M",
        "meta_epoch": "2025-12-21T14:00:01.999872",
        "meta_mean_motion": 15.89897389,
        "meta_eccentricity": 0.00043659,
        "meta_inclination": 69.9935,
        "meta_ra_of_asc_node": 298.0907,
        "meta_arg_of_pericenter": 263.1598,
        "meta_mean_anomaly": 42.3239,
        "meta_ephemeris_type": 0,
        "meta_classification_type": "U",
        "meta_norad_cat_id": 67014,
        "meta_element_set_no": 999,
        "meta_rev_at_epoch": 159,
        "meta_bstar": -0.0027651668,
        "meta_mean_motion_dot": -0.0082583,
        "meta_mean_motion_ddot": 0.0002076511,
        "tle_line1": "1 67014U 25293M   25355.58335648 -.00825830  20765-3 -27652-2 0  9996",
        "tle_line2": "2 67014  69.9935 298.0907 0004365 263.1598  42.3239 15.89897389  1593"
      },
      "geometry": {
        "type": "Point",
        "coordinates": [
          131.96347247382698,
          -35.24756255925891
        ]
      }
    },
    {
      "type": "Feature",
      "properties": {
        "norad_id": 67015,
        "name": "STARLINK-36093",
        "group": "last-30-days",
        "lat": -39.86397558364346,
        "lon": 134.7508541575021,
        "alt_km": 308.13628583031914,
        "timestamp": "2025-12-21T22:41:40.167755+00:00",
        "meta_object_name": "STARLINK-36093",
        "meta_object_id": "2025-293N",
        "meta_epoch": "2025-12-21T14:00:01.999872",
        "meta_mean_motion": 15.89992831,
        "meta_eccentricity": 0.00043764,
        "meta_inclination": 69.9929,
        "meta_ra_of_asc_node": 298.0843,
        "meta_arg_of_pericenter": 264.1527,
        "meta_mean_anomaly": 46.4088,
        "meta_ephemeris_type": 0,
        "meta_classification_type": "U",
        "meta_norad_cat_id": 67015,
        "meta_element_set_no": 999,
        "meta_rev_at_epoch": 153,
        "meta_bstar": -0.0033185524,
        "meta_mean_motion_dot": -0.00994649,
        "meta_mean_motion_ddot": 0.00029332576,
        "tle_line1": "1 67015U 25293N   25355.58335648 -.00994649  29333-3 -33186-2 0  9991",
        "tle_line2": "2 67015  69.9929 298.0843 0004376 264.1527  46.4088 15.89992831  1530"
      },
      "geometry": {
        "type": "Point",
        "coordinates": [
          134.7508541575021,
          -39.86397558364346
        ]
      }
    },
    {
      "type": "Feature",
      "properties": {
        "norad_id": 67016,
        "name": "STARLINK-36120",
        "group": "last-30-days",
        "lat": -37.42530912477085,
        "lon": 133.23051911132313,
        "alt_km": 308.0427248969181,
        "timestamp": "2025-12-21T22:41:40.167764+00:00",
        "meta_object_name": "STARLINK-36120",
        "meta_object_id": "2025-293P",
        "meta_epoch": "2025-12-21T14:00:01.999872",
        "meta_mean_motion": 15.8994755,
        "meta_eccentricity": 0.00043985,
        "meta_inclination": 69.9931,
        "meta_ra_of_asc_node": 298.0877,
        "meta_arg_of_pericenter": 264.1576,
        "meta_mean_anomaly": 43.7058,
        "meta_ephemeris_type": 0,
        "meta_classification_type": "U",
        "meta_norad_cat_id": 67016,
        "meta_element_set_no": 999,
        "meta_rev_at_epoch": 153,
        "meta_bstar": -0.0030226987,
        "meta_mean_motion_dot": -0.00904517,
        "meta_mean_motion_ddot": 0.00024591727,
        "tle_line1": "1 67016U 25293P   25355.58335648 -.00904517  24592-3 -30227-2 0  9992",
        "tle_line2": "2 67016  69.9931 298.0877 0004398 264.1576  43.7058 15.89947550  1534"
      },
      "geometry": {
        "type": "Point",
        "coordinates": [
          133.23051911132313,
          -37.42530912477085
        ]
      }
    },
    {
      "type": "Feature",
      "properties": {
        "norad_id": 67017,
        "name": "STARLINK-35498",
        "group": "last-30-days",
        "lat": -42.11959889628743,
        "lon": 136.26973444907532,
        "alt_km": 308.35579185219376,
        "timestamp": "2025-12-21T22:41:40.167776+00:00",
        "meta_object_name": "STARLINK-35498",
        "meta_object_id": "2025-293Q",
        "meta_epoch": "2025-12-21T14:00:01.999872",
        "meta_mean_motion": 15.90060993,
        "meta_eccentricity": 0.00045216,
        "meta_inclination": 69.9926,
        "meta_ra_of_asc_node": 298.0812,
        "meta_arg_of_pericenter": 270.5266,
        "meta_mean_anomaly": 42.5402,
        "meta_ephemeris_type": 0,
        "meta_classification_type": "U",
        "meta_norad_cat_id": 67017,
        "meta_element_set_no": 999,
        "meta_rev_at_epoch": 172,
        "meta_bstar": -0.003707571,
        "meta_mean_motion_dot": -0.01114149,
        "meta_mean_motion_ddot": 0.00036202488,
        "tle_line1": "1 67017U 25293Q   25355.58335648 -.01114149  36202-3 -37076-2 0  9998",
        "tle_line2": "2 67017  69.9926 298.0812 0004521 270.5266  42.5402 15.90060993  1723"
      },
      "geometry": {
        "type": "Point",
        "coordinates": [
          136.26973444907532,
          -42.11959889628743
        ]
      }
    }
  ]
}